[{"OBJECT_NAME":"DUBAISAT-2","OBJECT_ID":"2013-066D","EPOCH":"2026-03-09T22:07:51.982752","MEAN_MOTION":15.09361694,"ECCENTRICITY":0.00120191,"INCLINATION":97.4538,"RA_OF_ASC_NODE":61.7474,"ARG_OF_PERICENTER":22.7165,"MEAN_ANOMALY":337.4593,"EPHEMERIS_TYPE":0,"CLASSIFICATION_TYPE":"U","NORAD_CAT_ID":39419,"ELEMENT_SET_NO":999,"REV_AT_EPOCH":67141,"BSTAR":0.00034743884,"MEAN_MOTION_DOT":5.495e-5,"MEAN_MOTION_DDOT":0},{"OBJECT_NAME":"STARLINK-2745","OBJECT_ID":"2021-044AK","EPOCH":"2026-03-09T09:20:41.404704","MEAN_MOTION":15.06405086,"ECCENTRICITY":0.00013971,"INCLINATION":53.0559,"RA_OF_ASC_NODE":113.2738,"ARG_OF_PERICENTER":88.8606,"MEAN_ANOMALY":271.2543,"EPHEMERIS_TYPE":0,"CLASSIFICATION_TYPE":"U","NORAD_CAT_ID":48671,"ELEMENT_SET_NO":999,"REV_AT_EPOCH":26379,"BSTAR":5.7388395e-5,"MEAN_MOTION_DOT":5.74e-6,"MEAN_MOTION_DDOT":0}]
